satname,norad_id,inclination_deg,eccentricity,mean_motion_rev_per_day,perigee_km,apogee_km,l1,l2
STARLINK-1008,44714,53.1516,0.0002095,15.50703988,413.2463344235375,416.09252031660526,1 44714U 19074B   26173.33906004  .00053469  00000+0  91659-3 0  9994,2 44714  53.1516  44.0507 0002095 161.6172 198.4914 15.50703988365010
STARLINK-1012,44718,53.156,0.0001992,15.5107267,412.2400619999353,414.94588722182016,1 44718U 19074F   26173.84981259  .00055222  00000+0  93388-3 0  9999,2 44718  53.1560  41.8631 0001992 177.4061 182.6960 15.51072670365084
STARLINK-1017,44723,53.0481,0.0004356,15.32445178,465.5371549715337,471.50196216535915,1 44723U 19074L   26172.37955253  .00029942  00000+0  95018-3 0  9999,2 44723  53.0481  49.8614 0004356  81.8832 278.2662 15.32445178364829
STARLINK-1020,44725,53.1564,0.0003454,15.56556727,395.29083761863967,399.9715382828772,1 44725U 19074N   26173.69220247  .00076013  00000+0  10481-2 0  9996,2 44725  53.1564  66.1035 0003454 130.7554 229.3759 15.56556727364717
STARLINK-1036,44741,53.0414,0.0001177,15.72063048,352.20937301396407,353.7938830470039,1 44741U 19074AE  26172.22241414  .00485339  00000+0  34271-2 0  9999,2 44741  53.0414  40.7084 0001177 118.5491 241.5645 15.72063048364935
STARLINK-1039,44744,53.0587,0.0004086,15.29571039,474.2926298274406,479.8947243367529,1 44744U 19074AH  26173.48023861  .00027534  00000+0  95644-3 0  9996,2 44744  53.0587  90.4265 0004086  90.0949 270.0519 15.29571039364355
STARLINK-1042,44747,53.0419,0.0001646,15.54805227,401.6027406711364,403.83499842339006,1 44747U 19074AL  26172.69061524  .00018979  00000+0  28647-3 0  9991,2 44747  53.0419 313.8585 0001646 124.1560 235.9607 15.54805227366229
STARLINK-1043,44748,53.049,4.92e-05,15.63541425,377.10448630570136,377.7692347735783,1 44748U 19074AM  26172.82818085  .00030320  00000+0  32557-3 0  9998,2 44748  53.0490  48.6907 0000492 116.3730 243.7334 15.63541425364881
STARLINK-1046,44751,53.0457,0.0006094,15.56803011,392.78784027351594,401.0452755498991,1 44751U 19074AQ  26173.69793099  .00078977  00000+0  10778-2 0  9995,2 44751  53.0457  66.8118 0006094 113.1360 247.0294 15.56803011364709
STARLINK-1047,44752,53.0705,0.0003216,15.34783029,459.3653858952721,463.7646822435854,1 44752U 19074AR  26173.28035882  .00005970  00000+0  18546-3 0  9995,2 44752  53.0705  16.5519 0003216 143.7712 216.3507 15.34783029365390
STARLINK-1048,44753,53.0447,0.0005466,15.68784482,358.6921659623695,366.060895354085,1 44753U 19074AS  26173.57027613  .00046387  00000+0  40027-3 0  9997,2 44753  53.0447  16.2613 0005466 102.2852 257.8776 15.68784482365399
STARLINK-1063,44768,53.1543,0.000217,15.50676589,413.2753857861262,416.2234985020159,1 44768U 19074BH  26173.80353850  .00060173  00000+0  10307-2 0  9990,2 44768  53.1543  82.8623 0002170 126.8243 233.2966 15.50676589364520
STARLINK-1067,44771,53.0433,0.0001654,15.79089108,331.9102413533228,334.1302921771685,1 44771U 19074BL  26172.39407195  .00083367  00000+0  45748-3 0  9997,2 44771  53.0433  52.8812 0001654 195.6593 164.4377 15.79089108364781
STARLINK-1068,44772,53.0407,0.0002046,15.77520201,336.0951928980194,338.8432189574851,1 44772U 19074BM  26173.81000971  .00066517  00000+0  39314-3 0  9997,2 44772  53.0407  19.6529 0002046 228.5881 131.4963 15.77520201365363
STARLINK-1114,44927,53.0394,0.0001915,15.67483018,364.81554155970935,367.3985870363349,1 44927U 20001P   26172.26777311  .00515209  00000+0  43796-2 0  9993,2 44927  53.0394 185.4373 0001915  87.7426 272.3809 15.67483018356258
STARLINK-1123,44930,53.1423,0.0008136,15.60324425,381.21532519575885,392.22309922426666,1 44930U 20001S   26173.77380793  .00071156  00000+0  85133-3 0  9998,2 44930  53.1423 205.9184 0008136   2.3829 357.7222 15.60324425356117
STARLINK-1094,44941,53.1512,0.0007866,15.55941842,394.08496871344687,404.7474153951871,1 44941U 20001AD  26173.83637710  .00065307  00000+0  92250-3 0  9990,2 44941  53.1512 181.0949 0007866  24.7429 335.3958 15.55941842356473
STARLINK-1122,44949,53.1529,0.0007339,15.5618769,393.72883468730197,403.6758794956395,1 44949U 20001AM  26173.39650889  .00058723  00000+0  82349-3 0  9993,2 44949  53.1529 183.8153 0007339  21.1684 338.9630 15.56187690356396
STARLINK-1080,44961,53.0433,0.0003081,15.68991467,359.70713191700906,363.8602710532641,1 44961U 20001AZ  26173.33787900  .00043894  00000+0  37611-3 0  9991,2 44961  53.0433 140.2982 0003081  70.6622 289.4727 15.68991467356981
STARLINK-1090,44968,53.1475,0.0005917,15.52229826,406.20048754239906,414.2338258514337,1 44968U 20001BG  26173.80576993  .00059671  00000+0  96661-3 0  9998,2 44968  53.1475 169.9717 0005917  30.3796 329.7556 15.52229826356629
STARLINK-1132,45044,53.1484,0.0003619,15.577046,391.8511228521038,396.75301424992085,1 45044U 20006A   26173.53793895  .00074662  00000+0  98665-3 0  9994,2 45044  53.1484 111.7370 0003619  78.6109 281.5310 15.57704600353190
STARLINK-1131,45047,53.1548,0.0005692,15.54174055,400.69390470122653,408.4153208332009,1 45047U 20006D   26173.64879638  .00065505  00000+0  98777-3 0  9999,2 45047  53.1548 144.4133 0005692  48.8022 311.3480 15.54174055352742
STARLINK-1134,45048,53.0223,0.0007394,15.61093882,379.4958247196146,389.496406571031,1 45048U 20006E   26173.24607200  .00029038  00000+0  34275-3 0  9994,2 45048  53.0223  95.2858 0007394 121.9312 238.2420 15.61093882353372
STARLINK-1156,45054,53.1553,0.0004929,15.36182648,454.04071797520646,460.77920016745975,1 45054U 20006L   26173.63917739  .00037313  00000+0  10484-2 0  9995,2 45054  53.1553 151.9396 0004929  39.8878 320.2487 15.36182648352632
STARLINK-1166,45060,53.0426,0.0005452,15.61932868,378.38855073097966,385.7598850429631,1 45060U 20006S   26173.82061514  .00087368  00000+0  97999-3 0  9996,2 45060  53.0426 125.4562 0005452  63.1301 297.0269 15.61932868353007
STARLINK-1169,45061,53.1532,0.000617,15.39698653,442.7885989140332,451.21081761203095,1 45061U 20006T   26173.64043489  .00045550  00000+0  11384-2 0  9998,2 45061  53.1532 150.1518 0006170  20.5990 339.5262 15.39698653352664
STARLINK-1171,45062,53.0373,0.0002492,15.76519673,338.6360124074163,341.9844865165478,1 45062U 20006U   26173.50348365  .00069163  00000+0  42696-3 0  9992,2 45062  53.0373  91.3080 0002492  63.9668 296.1607 15.76519673353457
STARLINK-1133,45064,53.156,0.0005837,15.36184126,453.41566843948476,461.395480841119,1 45064U 20006W   26173.61064573  .00033784  00000+0  95056-3 0  9990,2 45064  53.1560 128.8548 0005837  52.5492 307.6041 15.36184126352960
STARLINK-1167,45071,53.1554,0.0003944,15.38754287,447.09897456096587,452.48484488495524,1 45071U 20006AD  26173.58911678  .00037032  00000+0  95783-3 0  9998,2 45071  53.1554 127.7564 0003944  26.7309 333.3898 15.38754287352974
STARLINK-1168,45072,53.156,0.0004898,15.36499652,453.1221492579516,459.8173300201015,1 45072U 20006AE  26173.58816969  .00038529  00000+0  10711-2 0  9995,2 45072  53.1560 129.1323 0004898  47.7632 312.3787 15.36499652352954
STARLINK-1172,45074,53.154,0.0004695,15.39760901,443.61144491390587,450.0200755557662,1 45074U 20006AG  26173.60211632  .00035054  00000+0  87802-3 0  9992,2 45074  53.1540 126.9253 0004695  33.4478 326.6823 15.39760901352989
STARLINK-1153,45080,53.1545,0.0005381,15.38818803,445.92705890149864,453.27507060678636,1 45080U 20006AN  26173.57152347  .00043107  00000+0  11099-2 0  9994,2 45080  53.1545 127.7475 0005381  17.6211 342.4979 15.38818803352979
STARLINK-1151,45081,53.0466,0.0002562,15.91160094,297.32470240341536,300.74608553808594,1 45081U 20006AP  26173.84269236  .00161121  20679-4  50530-3 0  9991,2 45081  53.0466  76.7359 0002562 215.2147 144.8709 15.91160094353682
STARLINK-1185,45087,53.1565,0.0005384,15.47500406,420.37872560908545,427.7033108991409,1 45087U 20006AV  26172.85536324  .00050058  00000+0  96064-3 0  9991,2 45087  53.1565 110.3765 0005384  64.8017 295.3549 15.47500406353156
STARLINK-1183,45088,53.1567,0.0008845,15.35849402,452.3517844193957,464.44561607313153,1 45088U 20006AW  26173.57053972 -.00033518  00000+0 -93907-3 0  9992,2 45088  53.1567 113.8611 0008845  71.9687 288.2280 15.35849402353167
STARLINK-1152,45096,53.0322,0.0003836,15.5063262,412.27205160826907,417.4836526028048,1 45096U 20006BE  26173.41895552  .00052782  00000+0  90706-3 0  9998,2 45096  53.0322  67.8426 0003836 131.9398 228.1938 15.50632620353776
STARLINK-1184,45098,53.0498,0.0005169,15.14935327,517.6086543903393,524.7411630415709,1 45098U 20006BG  26173.58740894  .00020166  00000+0  10823-2 0  9998,2 45098  53.0498 129.9065 0005169  77.6167 282.5404 15.14935327352919
STARLINK-1193,45100,53.0456,0.0004464,15.69314667,357.8499921314651,363.86656711711294,1 45100U 20006BJ  26173.04412927  .00044331  00000+0  37469-3 0  9992,2 45100  53.0456  79.5393 0004464  32.6050 327.5241 15.69314667353570
STARLINK-1143,45179,53.032,0.0008252,15.95147742,282.4019334608329,293.4035654633444,1 45179U 20012B   26173.35720224  .00196569  26188-4  49622-3 0  9996,2 45179  53.0320 166.5242 0008252  39.2473 320.9151 15.95147742352446
STARLINK-1202,45183,53.1552,0.0002688,15.35975847,456.18593578633045,459.8610556688327,1 45183U 20012F   26173.45234358  .00036234  00000+0  10256-2 0  9992,2 45183  53.1552 271.1875 0002688 318.4501  41.6298 15.35975847351015
STARLINK-1216,45185,53.1536,0.00029,15.36363577,454.89113930199983,458.85544527152524,1 45185U 20012H   26173.75354277  .00037409  00000+0  10452-2 0  9993,2 45185  53.1536 269.5977 0002900 308.3742  51.7001 15.36363577351000
STARLINK-1225,45187,53.1551,0.0003126,15.36380905,454.6852918092927,458.9585081135492,1 45187U 20012K   26173.68694416  .00037160  00000+0  10378-2 0  9990,2 45187  53.1551 270.3713 0003126 315.5123  44.5629 15.36380905351034
STARLINK-1230,45189,53.1538,0.000293,15.3619629,455.36668746014584,459.37229426379145,1 45189U 20012M   26173.56945506  .00037337  00000+0  10489-2 0  9997,2 45189  53.1538 271.0086 0002930 314.4196  45.6567 15.36196290348246
